AEROCUBE 8C             
1 41853U 16067F   26068.57122688  .00009726  00000+0  41541-3 0  9993
2 41853  98.0696 288.5487 0006461  53.7064 306.4766 15.23097058510890
RAY 1.0                 
1 62627U 25009U   26068.84026028  .00005065  00000+0  23775-3 0  9993
2 62627  97.4036 148.9866 0007290 261.8547  98.1862 15.20062713 63580
