[{"OBJECT_NAME":"AEROCUBE 8C","OBJECT_ID":"2016-067F","EPOCH":"2026-03-09T13:42:34.002432","MEAN_MOTION":15.23097058,"ECCENTRICITY":0.0006461,"INCLINATION":98.0696,"RA_OF_ASC_NODE":288.5487,"ARG_OF_PERICENTER":53.7064,"MEAN_ANOMALY":306.4766,"EPHEMERIS_TYPE":0,"CLASSIFICATION_TYPE":"U","NORAD_CAT_ID":41853,"ELEMENT_SET_NO":999,"REV_AT_EPOCH":51089,"BSTAR":0.00041541,"MEAN_MOTION_DOT":9.726e-5,"MEAN_MOTION_DDOT":0},{"OBJECT_NAME":"RAY 1.0","OBJECT_ID":"2025-009U","EPOCH":"2026-03-09T20:09:58.488192","MEAN_MOTION":15.20062713,"ECCENTRICITY":0.00072905,"INCLINATION":97.4036,"RA_OF_ASC_NODE":148.9866,"ARG_OF_PERICENTER":261.8547,"MEAN_ANOMALY":98.1862,"EPHEMERIS_TYPE":0,"CLASSIFICATION_TYPE":"U","NORAD_CAT_ID":62627,"ELEMENT_SET_NO":999,"REV_AT_EPOCH":6358,"BSTAR":0.00023774962,"MEAN_MOTION_DOT":5.065e-5,"MEAN_MOTION_DDOT":0}]
